# From MPEC 2021-P47
C/2019 K5 (Young),e,15.3119,177.1977,175.1412,169.6436,0.0004461,0.98793235,0.0000,06/22.6231/2019,2000,g 13.0,4.0
# From MPEC 2021-P47
C/2019 K6 (PANSTARRS),e,132.3798,43.0016,187.5288,1244,0.0000225,0.99684876,0.0000,05/19.6099/2020,2000,g 11.5,4.0
# From MPEC 2023-R20
C/2019 K7 (Smith),h,06/17.6284/2020,103.5137,307.9944,27.4058,1.000946,4.477914,2000,6.0,4.0
# From MPEC 2021-R75
C/2019 K8 (ATLAS),e,93.1032,291.0194,85.3615,2180,0.0000097,0.99853441,0.0000,07/21.3582/2019,2000,g 11.5,4.0
# From MPEC 2023-A50
C/2019 L1 (PANSTARRS),e,9.9756,254.4287,50.0575,9.834061,0.0319598,0.70486271,52.7781,02/16.0/2024,2000,g 13.5,4.0
# From MPC115886
C/2019 L2 (NEOWISE),e,152.1993,12.5557,18.8626,25.09982,0.0078379,0.93522835,13.9551,02/16.0/2024,2000,g 16.0,4.0
# From MPEC 2023-XP6
P/2019 LD2 (ATLAS),e,11.6077,179.4677,118.4632,5.201742,0.0830770,0.12704866,121.0204,02/16.0/2024,2000,g  8.5,4.0
# From MPEC 2024-C04
C/2019 L3 (ATLAS),h,01/09.8045/2022,48.3450,290.7538,171.6552,1.002475,3.554992,2000,4.5,4.0
# From MPEC 2020-K19
P/2019 LM4 (Palomar),e,36.4166,72.8397,68.2731,5.704821,0.0723338,0.58528492,123.2407,02/16.0/2024,2000,g  9.5,4.0
# From MPC118095
C/2019 LB7 (Kleyna),e,164.2891,3.9140,336.6555,34.82702,0.0047955,0.92836701,8.5721,02/16.0/2024,2000,g 17.0,4.0
# From MPEC 2022-O08
P/2019 M2 (ATLAS),e,12.2686,307.5885,332.5523,3.029784,0.1868902,0.64728605,317.9173,02/16.0/2024,2000,g 21.2,4.0
# From MPC118095
C/2019 M3 (ATLAS),e,99.5598,154.9670,87.9156,4982,0.0000028,0.99951343,0.0000,12/31.4644/2018,2000,g 12.2,4.0
# From MPEC 2023-JA2
C/2019 M4 (TESS),h,09/11.7143/2019,65.6785,52.6492,260.3712,1.002604,9.189850,2000,5.0,4.0
# From MPEC 2023-C45
C/2019 N1 (ATLAS),e,82.4466,13.5614,193.3833,1208,0.0000235,0.99858915,0.0000,11/30.9644/2020,2000,g  7.5,4.0
# From MPEC 2023-CD8
A/2019 N2,e,89.3553,276.1742,347.1632,1452,0.0000178,0.99865980,0.0000,08/22.6679/2019,2000,g 12.5,2.0
# From MPEC 2022-A21
C/2019 NJ3 (Lemmon),h,10/22.7483/2020,99.3932,142.4820,246.8944,1.001935,4.363446,2000,9.0,4.0
# From MPEC 2023-SQ0
A/2019 O2,e,93.3122,48.2578,129.6131,58.29032,0.0022147,0.83389184,0.6983,02/16.0/2024,2000,g  9.5,2.0
# From MPEC 2024-C04
C/2019 O3 (Palomar),h,03/09.5743/2021,89.8123,300.4452,60.1317,1.004213,8.821368,2000,3.5,4.0
# From MPEC 2021-P47
A/2019 O4,e,115.0721,354.9280,61.8709,33.25327,0.0051399,0.89033989,7.5356,02/16.0/2024,2000,g 15.5,2.0
# From MPEC 2023-A50
C/2019 Q1 (Lemmon),h,07/21.2682/2020,155.7312,42.4566,56.2353,1.001522,5.004778,2000,8.5,4.0
# From MPC117072
A/2019 Q2,e,159.0166,188.0378,176.4466,58.31807,0.0022131,0.97833040,0.0000,07/22.4762/2019,2000,g 18.0,2.0
# From MPC117072
P/2019 S2 (PANSTARRS),e,10.4649,93.1865,217.0900,4.744815,0.0953619,0.20513973,173.7220,02/16.0/2024,2000,g 13.5,4.0
# From MPEC 2022-CN4
P/2019 S3 (PANSTARRS),e,8.6940,150.1661,213.0610,3.415234,0.1561613,0.47103146,255.0611,02/16.0/2024,2000,g 18.3,4.0
# From MPEC 2021-S45
C/2019 S4 (Lemmon),e,92.1031,63.1579,71.3719,239.3404,0.0002662,0.98561928,0.0000,04/08.4042/2020,2000,g 11.0,4.0
# From MPEC 2023-N01
A/2019 T1,e,120.8641,6.9440,91.0530,38.83350,0.0040728,0.88979740,4.5901,02/16.0/2024,2000,g 13.0,2.0
# From MPEC 2023-R20
C/2019 T2 (Lemmon),e,111.4440,155.6551,239.4256,5006,0.0000028,0.99947150,0.0000,04/22.6476/2021,2000,g  9.0,4.0
# From MPEC 2023-UR6
C/2019 T3 (ATLAS),e,121.8413,139.5327,112.4588,3381,0.0000050,0.99823967,0.0000,03/04.3018/2021,2000,g  6.8,4.0
# From MPEC 2024-C04
C/2019 T4 (ATLAS),e,53.6299,199.9350,351.1380,904.6722,0.0000362,0.99531252,0.0000,06/08.7596/2022,2000,g  5.0,4.0
# From MPEC 2021-P47
P/2019 T5 (ATLAS),e,33.4923,247.6139,189.5816,8.000736,0.0435521,0.80977040,72.2312,02/16.0/2024,2000,g 15.0,4.0
# From MPEC 2021-P47
P/2019 T6 (PANSTARRS),e,18.6985,71.2496,329.0044,5.439647,0.0776869,0.62302635,121.1952,02/16.0/2024,2000,g 15.5,4.0
# From MPC118096
P/2019 U4 (PANSTARRS),e,11.6984,200.0194,181.0392,3.519819,0.1492532,0.47598335,240.2593,02/16.0/2024,2000,g 19.0,4.0
# From MPEC 2024-C04
C/2019 U5 (PANSTARRS),h,03/29.7289/2023,113.5154,2.6334,181.4741,1.001038,3.623956,2000,4.5,4.0
# From MPEC 2022-H04
C/2019 U6 (Lemmon),e,60.9668,235.7869,329.5114,321.8841,0.0001707,0.99716851,0.0000,06/18.2910/2020,2000,g 10.0,4.0
# From MPEC 2022-N37
C/2019 V1 (Borisov),e,61.9304,83.1521,51.1705,1763,0.0000133,0.99824500,0.0000,07/16.7345/2020,2000,g 11.0,4.0
# From MPEC 2022-L66
P/2019 V2 (Groeller),e,11.8076,189.1767,335.6656,7.496368,0.0480206,0.33128620,58.4498,02/16.0/2024,2000,g 10.0,4.0
# From MPEC 2023-A50
P/2019 W1 (PANSTARRS),e,23.4749,35.3761,18.7829,4.548868,0.1015896,0.26727603,177.0461,02/16.0/2024,2000,g 12.9,4.0
# From MPEC 2021-P47
P/2019 X1 (Pruyne),e,10.2502,43.6796,36.8445,6.175708,0.0642205,0.30390654,107.1782,02/16.0/2024,2000,g 10.4,4.0
# From MPEC 2020-C98
P/2019 X2 (Pan-STARRS),e,15.8951,250.8397,213.4524,3.636027,0.1421554,0.50005653,217.3518,02/16.0/2024,2000,g 18.0,4.0
# From MPC119999
C/2019 Y1 (ATLAS),e,73.3757,31.5394,57.9117,87.16778,0.0012111,0.99050045,0.0000,03/16.4061/2020,2000,g 13.7,4.0
# From MPEC 2020-C98
P/2019 Y3 (Catalina),e,24.6018,139.3044,2.5807,3.014248,0.1883370,0.69114254,288.2065,02/16.0/2024,2000,g 18.5,4.0
# From MPEC 2024-A43
C/2019 Y4 (ATLAS),e,45.1110,120.7120,177.4444,354.4247,0.0001477,0.99927733,0.0000,05/30.5988/2020,2000,g 11.8,6.0
# From MPEC 2020-L06
C/2019 Y4-A (ATLAS),h,05/30.6330/2020,45.5512,121.0755,177.2782,1.001411,0.254293,2000,11.6,6.0
# From MPEC 2023-J29
C/2019 Y4-B (ATLAS),h,05/30.6073/2020,45.2411,120.8188,177.3888,1.000008,0.255606,2000,12.1,6.0
# From MPEC 2020-L06
C/2019 Y4-C (ATLAS),h,05/30.5857/2020,45.3340,120.8024,177.3114,1.002137,0.255366,2000,12.7,6.0
# From MPEC 2020-L06
C/2019 Y4-D (ATLAS),e,45.3815,121.1722,177.4504,68.19846,0.0017500,0.99626563,0.0000,05/30.7076/2020,2000,g 12.5,6.0
# From MPEC 2023-A50
C/2019 Y5 (PANSTARRS),e,82.7616,51.7507,303.5980,723.9459,0.0000506,0.99319772,0.0000,08/17.5387/2019,2000,g 11.0,4.0
# From MPEC 2023-A50
A/2020 A1,e,149.0341,119.1537,302.4483,25.55318,0.0076302,0.93476850,11.7299,02/16.0/2024,2000,g 18.0,2.0
# From MPEC 2022-YN2
C/2020 A2 (Iwamoto),e,120.5764,286.2543,68.0476,1219,0.0000232,0.99920104,0.0000,01/08.2652/2020,2000,g 13.5,4.0
# From MPEC 2023-A50
C/2020 A3 (ATLAS),h,06/28.5713/2019,146.6498,120.8047,268.3177,1.000274,5.756476,2000,8.0,4.0
# From MPEC 2022-P91
P/2020 A4 (PANSTARRS-Lemmon),e,24.9925,312.3507,144.7907,8.196050,0.0420046,0.65428586,64.9181,02/16.0/2024,2000,g 15.0,4.0
# From MPEC 2020-N08
A/2020 B1,e,18.5235,309.9127,154.7462,51.60304,0.0026588,0.96630065,4.0207,02/16.0/2024,2000,g 21.0,2.0
# From MPEC 2020-HN5
C/2020 B2 (Lemmon),e,55.7526,354.2736,143.5965,67.67071,0.0017705,0.95922963,2.6226,02/16.0/2024,2000,g 10.0,4.0
# From MPEC 2022-N37
C/2020 B3 (Rankin),e,20.7085,185.8268,324.8853,944.1634,0.0000340,0.99647055,0.0000,10/19.7354/2019,2000,g 13.0,4.0
# From MPEC 2023-KD6
P/2020 B4 (Sheppard),e,11.6076,185.9748,342.0005,7.967876,0.0438218,0.19211692,35.9196,02/16.0/2024,2000,g 10.5,4.0
# From MPEC 2024-C04
C/2020 F2 (ATLAS),h,07/14.0673/2022,163.5894,250.3005,48.2971,1.004761,8.815449,2000,4.5,4.0
# From MPEC 2021-O56
C/2020 F3 (NEOWISE),e,129.1410,61.0911,37.3888,376.1926,0.0001351,0.99921583,0.0000,07/04.1043/2020,2000,g  7.5,5.2
# From MPEC 2024-BE0
C/2020 F5 (MASTER),e,52.2083,350.5029,310.6768,171.0397,0.0004406,0.97470664,0.0000,03/17.0769/2021,2000,g  6.5,3.2
# From MPEC 2020-L06
C/2020 F6 (PANSTARRS),e,174.5831,207.8957,344.4756,380.6109,0.0001327,0.99079956,0.0000,04/11.4702/2020,2000,g 14.5,2.8
# From MPEC 2024-A43
C/2020 F7 (Lemmon),e,93.9571,321.8540,227.9498,557.9052,0.0000748,0.99044183,0.0000,11/13.6364/2021,2000,g  7.0,4.0
# From MPEC 2023-J29
C/2020 F8 (SWAN),h,05/26.9117/2020,110.5858,259.8370,68.0754,1.000147,0.430047,2000,10.0,4.0
# From MPEC 2020-L06
P/2020 G1 (Pimentel),e,18.5106,240.1089,207.6172,3.607813,0.1438262,0.86062683,205.6552,02/16.0/2024,2000,g 17.0,4.0
# From MPEC 2022-YB4
C/2020 H2 (Pruyne),e,124.8486,277.6700,26.6347,185.7855,0.0003892,0.99553282,0.0000,04/27.7231/2020,2000,g 14.0,3.2
# From MPEC 2020-HM1
C/2020 H3 (Wierzchos),p,06/05.7162/2020,62.5292,30.4456,2.300288,270.6227,2000,13.5,4.0
# From MPEC 2020-L06
C/2020 H4 (Leonard),e,84.4977,307.5986,117.5180,47.81997,0.0029805,0.98066337,0.0000,08/29.5979/2020,2000,g 15.0,3.2
# From MPEC 2023-VM5
C/2020 H5 (Robinson),e,70.2539,210.6270,326.3031,4422,0.0000034,0.99788801,0.0000,12/10.2742/2020,2000,g  5.0,4.0
# From MPEC 2024-AF0
C/2020 H6 (ATLAS),e,79.9781,213.7187,20.2627,3691,0.0000044,0.99872652,0.0000,09/30.2986/2021,2000,g  8.0,3.2
# From MPEC 2020-KB7
C/2020 H7 (Lemmon),e,135.9235,323.5194,82.6780,1405,0.0000187,0.99685380,0.0000,06/02.9510/2020,2000,g 11.0,4.0
# From MPEC 2021-N06
C/2020 H8 (PANSTARRS),e,99.7022,68.4391,128.9078,599.8755,0.0000671,0.99221177,0.0000,06/04.5679/2020,2000,g 10.5,4.0
# From MPEC 2022-ED3
A/2020 H9,e,137.8789,213.1795,312.7719,363.7657,0.0001421,0.99293656,0.0000,12/21.8511/2019,2000,g 18.0,2.0
# From MPEC 2023-HN7
C/2020 H11 (PANSTARRS-Lemmon),h,09/14.3989/2020,151.3910,303.0460,91.4342,1.001616,7.624617,2000,8.5,4.0
# From MPEC 2023-KD6
C/2020 J1 (SONEAR),h,04/18.5439/2021,142.3059,226.6101,341.6965,1.000501,3.350415,2000,8.5,3.2
# From MPEC 2024-C04
C/2020 K1 (PANSTARRS),e,89.6733,94.3612,213.9824,10428,0.0000009,0.99970528,0.0000,05/09.0624/2023,2000,g  5.5,4.0
# From MPEC 2021-N06
C/2020 K2 (PANSTARRS),h,08/05.9857/2020,91.0085,288.4104,67.3456,1.002790,8.880583,2000,10.8,4.0
# From MPEC 2020-KF9
C/2020 K3 (Leonard),p,06/01.0032/2020,129.0152,64.4924,1.583069,28.3546,2000,14.5,4.0
# From MPEC 2020-L06
C/2020 K4 (PANSTARRS),e,125.5852,264.2417,308.8597,23.96921,0.0083989,0.92693676,12.1256,02/16.0/2024,2000,g 16.5,4.0
# From MPEC 2021-R75
C/2020 K5 (PANSTARRS),h,06/05.2011/2021,67.0896,86.1523,249.6253,1.001200,1.537939,2000,11.0,4.0
# From MPEC 2023-N01
C/2020 K6 (Rankin),h,09/15.6808/2021,103.6447,291.5741,44.3300,1.003419,5.868405,2000,8.0,4.0
# From MPEC 2023-A50
